{"type": "FeatureCollection", "features": [ {"type": "Feature", "properties": {"norad_id": 54234, "name": "NOAA 21 (JPSS-2)", "group": "weather", "lat": -36.17288707150787, "lon": -55.87264263888707, "alt_km": 832.4072611694683, "timestamp": "2025-12-27T12:55:14.129506+00:00", "meta": {"OBJECT_NAME": "NOAA 21 (JPSS-2)", "OBJECT_ID": "2022-150A", "EPOCH": "2025-12-27T06:19:34.739328", "MEAN_MOTION": 14.19528261, "ECCENTRICITY": 0.00015371, "INCLINATION": 98.7479, "RA_OF_ASC_NODE": 297.3919, "ARG_OF_PERICENTER": 7.4165, "MEAN_ANOMALY": 352.7034, "EPHEMERIS_TYPE": 0, "CLASSIFICATION_TYPE": "U", "NORAD_CAT_ID": 54234, "ELEMENT_SET_NO": 999, "REV_AT_EPOCH": 16215, "BSTAR": 7.8604583e-05, "MEAN_MOTION_DOT": 1.22e-06, "MEAN_MOTION_DDOT": 0}, "tle": {"line1": "1 54234U 22150A   25361.26359652  .00000122  00000+0  78605-4 0  9997", "line2": "2 54234  98.7479 297.3919 0001537   7.4165 352.7034 14.19528261162151"}}, "geometry": {"type": "Point", "coordinates": [-55.87264263888707, -36.17288707150787]}}, {"type": "Feature", "properties": {"norad_id": 54743, "name": "METEOSAT-12 (MTG-I1)", "group": "weather", "lat": -0.7161359941315325, "lon": -70.25163849371042, "alt_km": 35779.46041833955, "timestamp": "2025-12-27T12:55:14.129519+00:00", "meta": {"OBJECT_NAME": "METEOSAT-12 (MTG-I1)", "OBJECT_ID": "2022-170C", "EPOCH": "2025-12-27T04:26:24.513216", "MEAN_MOTION": 1.00270944, "ECCENTRICITY": 0.00017583, "INCLINATION": 0.702, "RA_OF_ASC_NODE": 25.996, "ARG_OF_PERICENTER": 242.4895, "MEAN_ANOMALY": 253.7092, "EPHEMERIS_TYPE": 0, "CLASSIFICATION_TYPE": "U", "NORAD_CAT_ID": 54743, "ELEMENT_SET_NO": 999, "REV_AT_EPOCH": 1125, "BSTAR": 0, "MEAN_MOTION_DOT": 1.4e-07, "MEAN_MOTION_DDOT": 0}, "tle": {"line1": "1 54743U 22170C   25361.18500594  .00000014  00000+0  00000+0 0  9997", "line2": "2 54743   0.7020  25.9960 0001758 242.4895 253.7092  1.00270944 11254"}}, "geometry": {"type": "Point", "coordinates": [-70.25163849371042, -0.7161359941315325]}}, {"type": "Feature", "properties": {"norad_id": 55973, "name": "TIANMU-1 03", "group": "weather", "lat": -56.51274235760768, "lon": -26.897427850006196, "alt_km": 451.1004364842347, "timestamp": "2025-12-27T12:55:14.129538+00:00", "meta": {"OBJECT_NAME": "TIANMU-1 03", "OBJECT_ID": "2023-039A", "EPOCH": "2025-12-27T07:13:12.932832", "MEAN_MOTION": 15.41359239, "ECCENTRICITY": 0.00036531, "INCLINATION": 97.5115, "RA_OF_ASC_NODE": 164.3632, "ARG_OF_PERICENTER": 18.1719, "MEAN_ANOMALY": 341.9657, "EPHEMERIS_TYPE": 0, "CLASSIFICATION_TYPE": "U", "NORAD_CAT_ID": 55973, "ELEMENT_SET_NO": 999, "REV_AT_EPOCH": 15430, "BSTAR": 0.00041021115, "MEAN_MOTION_DOT": 0.00017049, "MEAN_MOTION_DDOT": 0}, "tle": {"line1": "1 55973U 23039A   25361.30084413  .00017049  00000+0  41021-3 0  9997", "line2": "2 55973  97.5115 164.3632 0003653  18.1719 341.9657 15.41359239154308"}}, "geometry": {"type": "Point", "coordinates": [-26.897427850006196, -56.51274235760768]}}, {"type": "Feature", "properties": {"norad_id": 55974, "name": "TIANMU-1 04", "group": "weather", "lat": 9.114730586738126, "lon": 162.58078525380847, "alt_km": 440.0056200559775, "timestamp": "2025-12-27T12:55:14.129596+00:00", "meta": {"OBJECT_NAME": "TIANMU-1 04", "OBJECT_ID": "2023-039B", "EPOCH": "2025-12-27T08:12:27.655200", "MEAN_MOTION": 15.41705291, "ECCENTRICITY": 0.0004253, "INCLINATION": 97.5045, "RA_OF_ASC_NODE": 163.5908, "ARG_OF_PERICENTER": 11.1584, "MEAN_ANOMALY": 348.9756, "EPHEMERIS_TYPE": 0, "CLASSIFICATION_TYPE": "U", "NORAD_CAT_ID": 55974, "ELEMENT_SET_NO": 999, "REV_AT_EPOCH": 15431, "BSTAR": 0.00041978766, "MEAN_MOTION_DOT": 0.00017654, "MEAN_MOTION_DDOT": 0}, "tle": {"line1": "1 55974U 23039B   25361.34198675  .00017654  00000+0  41979-3 0  9992", "line2": "2 55974  97.5045 163.5908 0004253  11.1584 348.9756 15.41705291154319"}}, "geometry": {"type": "Point", "coordinates": [162.58078525380847, 9.114730586738126]}}, {"type": "Feature", "properties": {"norad_id": 55975, "name": "TIANMU-1 05", "group": "weather", "lat": 20.49537691346644, "lon": 161.4592405008776, "alt_km": 439.7888034266389, "timestamp": "2025-12-27T12:55:14.129616+00:00", "meta": {"OBJECT_NAME": "TIANMU-1 05", "OBJECT_ID": "2023-039C", "EPOCH": "2025-12-27T08:09:24.640128", "MEAN_MOTION": 15.41316873, "ECCENTRICITY": 0.00038452, "INCLINATION": 97.5092, "RA_OF_ASC_NODE": 164.0814, "ARG_OF_PERICENTER": 38.111, "MEAN_ANOMALY": 322.0408, "EPHEMERIS_TYPE": 0, "CLASSIFICATION_TYPE": "U", "NORAD_CAT_ID": 55975, "ELEMENT_SET_NO": 999, "REV_AT_EPOCH": 15429, "BSTAR": 0.00041737393, "MEAN_MOTION_DOT": 0.00017325, "MEAN_MOTION_DDOT": 0}, "tle": {"line1": "1 55975U 23039C   25361.33986852  .00017325  00000+0  41737-3 0  9991", "line2": "2 55975  97.5092 164.0814 0003845  38.1110 322.0408 15.41316873154292"}}, "geometry": {"type": "Point", "coordinates": [161.4592405008776, 20.49537691346644]}}, {"type": "Feature", "properties": {"norad_id": 55976, "name": "TIANMU-1 06", "group": "weather", "lat": -0.1394360479015227, "lon": 164.78130424737552, "alt_km": 441.6470444983979, "timestamp": "2025-12-27T12:55:14.129628+00:00", "meta": {"OBJECT_NAME": "TIANMU-1 06", "OBJECT_ID": "2023-039D", "EPOCH": "2025-12-27T08:14:53.443968", "MEAN_MOTION": 15.41756393, "ECCENTRICITY": 0.00040895, "INCLINATION": 97.5103, "RA_OF_ASC_NODE": 164.5626, "ARG_OF_PERICENTER": 31.641, "MEAN_ANOMALY": 328.5082, "EPHEMERIS_TYPE": 0, "CLASSIFICATION_TYPE": "U", "NORAD_CAT_ID": 55976, "ELEMENT_SET_NO": 999, "REV_AT_EPOCH": 15431, "BSTAR": 0.00042088599, "MEAN_MOTION_DOT": 0.0001773, "MEAN_MOTION_DDOT": 0}, "tle": {"line1": "1 55976U 23039D   25361.34367412  .00017730  00000+0  42089-3 0  9999", "line2": "2 55976  97.5103 164.5626 0004089  31.6410 328.5082 15.41756393154311"}}, "geometry": {"type": "Point", "coordinates": [164.78130424737552, -0.1394360479015227]}}, {"type": "Feature", "properties": {"norad_id": 56232, "name": "FENGYUN 3G", "group": "weather", "lat": 43.71066782130837, "lon": -82.31394296647248, "alt_km": 406.78745984637953, "timestamp": "2025-12-27T12:55:14.129640+00:00", "meta": {"OBJECT_NAME": "FENGYUN 3G", "OBJECT_ID": "2023-055A", "EPOCH": "2025-12-27T06:14:42.601056", "MEAN_MOTION": 15.52188444, "ECCENTRICITY": 0.00039228, "INCLINATION": 49.9927, "RA_OF_ASC_NODE": 152.5311, "ARG_OF_PERICENTER": 298.5758, "MEAN_ANOMALY": 61.4814, "EPHEMERIS_TYPE": 0, "CLASSIFICATION_TYPE": "U", "NORAD_CAT_ID": 56232, "ELEMENT_SET_NO": 999, "REV_AT_EPOCH": 15328, "BSTAR": 0.00050895153, "MEAN_MOTION_DOT": 0.00031116, "MEAN_MOTION_DDOT": 0}, "tle": {"line1": "1 56232U 23055A   25361.26021529  .00031116  00000+0  50895-3 0  9998", "line2": "2 56232  49.9927 152.5311 0003922 298.5758  61.4814 15.52188444153283"}}, "geometry": {"type": "Point", "coordinates": [-82.31394296647248, 43.71066782130837]}}, {"type": "Feature", "properties": {"norad_id": 57166, "name": "METEOR-M2 3", "group": "weather", "lat": 68.83734351817253, "lon": -102.06824387010649, "alt_km": 806.9604105837034, "timestamp": "2025-12-27T12:55:14.129651+00:00", "meta": {"OBJECT_NAME": "METEOR-M2 3", "OBJECT_ID": "2023-091A", "EPOCH": "2025-12-27T07:20:59.753760", "MEAN_MOTION": 14.24027824, "ECCENTRICITY": 0.00031512, "INCLINATION": 98.6357, "RA_OF_ASC_NODE": 54.5898, "ARG_OF_PERICENTER": 322.5193, "MEAN_ANOMALY": 37.5766, "EPHEMERIS_TYPE": 0, "CLASSIFICATION_TYPE": "U", "NORAD_CAT_ID": 57166, "ELEMENT_SET_NO": 999, "REV_AT_EPOCH": 13005, "BSTAR": 2.469859e-05, "MEAN_MOTION_DOT": 1.3e-07, "MEAN_MOTION_DDOT": 0}, "tle": {"line1": "1 57166U 23091A   25361.30624715  .00000013  00000+0  24699-4 0  9992", "line2": "2 57166  98.6357  54.5898 0003151 322.5193  37.5766 14.24027824130056"}}, "geometry": {"type": "Point", "coordinates": [-102.06824387010649, 68.83734351817253]}}, {"type": "Feature", "properties": {"norad_id": 57399, "name": "TIANMU-1 07", "group": "weather", "lat": 73.67179925297464, "lon": 25.16682323240723, "alt_km": 471.10674133505836, "timestamp": "2025-12-27T12:55:14.129662+00:00", "meta": {"OBJECT_NAME": "TIANMU-1 07", "OBJECT_ID": "2023-101A", "EPOCH": "2025-12-27T07:52:41.494656", "MEAN_MOTION": 15.2828184, "ECCENTRICITY": 0.00048492, "INCLINATION": 97.2857, "RA_OF_ASC_NODE": 50.8561, "ARG_OF_PERICENTER": 43.5812, "MEAN_ANOMALY": 316.581, "EPHEMERIS_TYPE": 0, "CLASSIFICATION_TYPE": "U", "NORAD_CAT_ID": 57399, "ELEMENT_SET_NO": 999, "REV_AT_EPOCH": 13538, "BSTAR": 0.00028676274, "MEAN_MOTION_DOT": 7.831e-05, "MEAN_MOTION_DDOT": 0}, "tle": {"line1": "1 57399U 23101A   25361.32825804  .00007831  00000+0  28676-3 0  9999", "line2": "2 57399  97.2857  50.8561 0004849  43.5812 316.5810 15.28281840135389"}}, "geometry": {"type": "Point", "coordinates": [25.16682323240723, 73.67179925297464]}}, {"type": "Feature", "properties": {"norad_id": 57400, "name": "TIANMU-1 08", "group": "weather", "lat": -74.37149616349454, "lon": -156.3544966887534, "alt_km": 492.17246214304123, "timestamp": "2025-12-27T12:55:14.129675+00:00", "meta": {"OBJECT_NAME": "TIANMU-1 08", "OBJECT_ID": "2023-101B", "EPOCH": "2025-12-27T07:05:20.342976", "MEAN_MOTION": 15.28262355, "ECCENTRICITY": 0.00067869, "INCLINATION": 97.2846, "RA_OF_ASC_NODE": 50.6195, "ARG_OF_PERICENTER": 42.5008, "MEAN_ANOMALY": 317.6757, "EPHEMERIS_TYPE": 0, "CLASSIFICATION_TYPE": "U", "NORAD_CAT_ID": 57400, "ELEMENT_SET_NO": 999, "REV_AT_EPOCH": 13537, "BSTAR": 0.00029589963, "MEAN_MOTION_DOT": 8.081e-05, "MEAN_MOTION_DDOT": 0}, "tle": {"line1": "1 57400U 23101B   25361.29537434  .00008081  00000+0  29590-3 0  9991", "line2": "2 57400  97.2846  50.6195 0006786  42.5008 317.6757 15.28262355135370"}}, "geometry": {"type": "Point", "coordinates": [-156.3544966887534, -74.37149616349454]}}]}